{
  "norad_id": 56688,
  "name": "STARLINK-30122",
  "history": [
    {
      "epoch": "2026-03-28T22:00:01.999584",
      "apogee_km": 495.494310127222,
      "perigee_km": 493.3153020221889,
      "latitude_deg": 29.983699847059157,
      "longitude_deg": -63.19777824007906,
      "semi_major_axis_km": 6872.541806074705,
      "eccentricity": 0.00015853,
      "inclination_deg": 43.0006,
      "raan_deg": 169.4437,
      "arg_perigee_deg": 277.5837,
      "mean_anomaly_deg": 251.9118,
      "mean_motion_rev_day": 15.23795464
    },
    {
      "epoch": "2026-03-29T04:00:01.999584",
      "apogee_km": 493.96574138949563,
      "perigee_km": 492.36885027114477,
      "latitude_deg": 3.727899604766891,
      "longitude_deg": -39.19777824007906,
      "semi_major_axis_km": 6871.30429583032,
      "eccentricity": 0.0001162,
      "inclination_deg": 43.0003,
      "raan_deg": 168.0395,
      "arg_perigee_deg": 281.8755,
      "mean_anomaly_deg": 181.1175,
      "mean_motion_rev_day": 15.24207132
    }
  ]
}